[
    {
        "Altitude(m)": 605459.039500221,
        "Argument of Periapsis(deg)": 0.0,
        "Eccentricity": 0.0,
        "Inclination(deg)": 60.0,
        "Latitude(deg)": 27.98824875134479,
        "Longitude(deg)": 177.79863750897704,
        "Mean Anomaly(deg)": 32.72730000000001,
        "RAAN(deg)": 260.0,
        "Satellite Name": "Test1 1146",
        "Satellite Number": 1146,
        "Semi-Major Axis(m)": 6980739.136638005,
        "Time(s)": 0
    },
    {
        "Altitude(m)": 605535.8304526411,
        "Argument of Periapsis(deg)": 0.00010418945913296404,
        "Eccentricity": 0.0,
        "Inclination(deg)": 60.0,
        "Latitude(deg)": 28.50137763248309,
        "Longitude(deg)": 178.15558384701245,
        "Mean Anomaly(deg)": 33.34740614546182,
        "RAAN(deg)": 259.99957995086027,
        "Satellite Name": "Test1 1146",
        "Satellite Number": 1146,
        "Semi-Major Axis(m)": 6980739.136638005,
        "Time(s)": 10
    }
]